CCSDS_OMM_VERS = 2.0
CREATION_DATE  = 
ORIGINATOR     = 

OBJECT_NAME    = SL-14 R/B
OBJECT_ID      = 1991-042B
CENTER_NAME    = EARTH
REF_FRAME      = TEME
TIME_SYSTEM    = UTC
MEAN_ELEMENT_THEORY = SGP/SGP4

EPOCH          = 2026-01-25T03:15:08.423424
MEAN_MOTION    = 14.81786892
ECCENTRICITY   = .00178066
INCLINATION    = 82.4914
RA_OF_ASC_NODE = 261.0338
ARG_OF_PERICENTER = 28.7909
MEAN_ANOMALY   = 331.4284

EPHEMERIS_TYPE = 0
CLASSIFICATION_TYPE = U
NORAD_CAT_ID   = 21423
ELEMENT_SET_NO = 999
REV_AT_EPOCH   = 84662
BSTAR          = .85020356E-4
MEAN_MOTION_DOT = .696E-5
MEAN_MOTION_DDOT = 0

CCSDS_OMM_VERS = 2.0
CREATION_DATE  = 
ORIGINATOR     = 

OBJECT_NAME    = ERS-1
OBJECT_ID      = 1991-050A
CENTER_NAME    = EARTH
REF_FRAME      = TEME
TIME_SYSTEM    = UTC
MEAN_ELEMENT_THEORY = SGP/SGP4

EPOCH          = 2026-01-25T12:44:00.714048
MEAN_MOTION    = 14.39409393
ECCENTRICITY   = .00314496
INCLINATION    = 98.7898
RA_OF_ASC_NODE = 42.6804
ARG_OF_PERICENTER = 332.0937
MEAN_ANOMALY   = 27.8562

EPHEMERIS_TYPE = 0
CLASSIFICATION_TYPE = U
NORAD_CAT_ID   = 21574
ELEMENT_SET_NO = 999
REV_AT_EPOCH   = 80952
BSTAR          = .21493422E-3
MEAN_MOTION_DOT = .626E-5
MEAN_MOTION_DDOT = 0

CCSDS_OMM_VERS = 2.0
CREATION_DATE  = 
ORIGINATOR     = 

OBJECT_NAME    = ARIANE 40 R/B
OBJECT_ID      = 1991-050F
CENTER_NAME    = EARTH
REF_FRAME      = TEME
TIME_SYSTEM    = UTC
MEAN_ELEMENT_THEORY = SGP/SGP4

EPOCH          = 2026-01-25T14:45:14.368896
MEAN_MOTION    = 14.42858126
ECCENTRICITY   = .00029697
INCLINATION    = 98.2101
RA_OF_ASC_NODE = 79.4491
ARG_OF_PERICENTER = 182.0986
MEAN_ANOMALY   = 178.0193

EPHEMERIS_TYPE = 0
CLASSIFICATION_TYPE = U
NORAD_CAT_ID   = 21610
ELEMENT_SET_NO = 999
REV_AT_EPOCH   = 81278
BSTAR          = .19760752E-3
MEAN_MOTION_DOT = .618E-5
MEAN_MOTION_DDOT = 0

CCSDS_OMM_VERS = 2.0
CREATION_DATE  = 
ORIGINATOR     = 

OBJECT_NAME    = INTERCOSMOS 25
OBJECT_ID      = 1991-086A
CENTER_NAME    = EARTH
REF_FRAME      = TEME
TIME_SYSTEM    = UTC
MEAN_ELEMENT_THEORY = SGP/SGP4

EPOCH          = 2026-01-25T07:28:30.112032
MEAN_MOTION    = 12.11878650
ECCENTRICITY   = .148619
INCLINATION    = 82.6090
RA_OF_ASC_NODE = 336.2221
ARG_OF_PERICENTER = 210.4095
MEAN_ANOMALY   = 140.2020

EPHEMERIS_TYPE = 0
CLASSIFICATION_TYPE = U
NORAD_CAT_ID   = 21819
ELEMENT_SET_NO = 999
REV_AT_EPOCH   = 49143
BSTAR          = .36712E-3
MEAN_MOTION_DOT = .1861E-4
MEAN_MOTION_DDOT = 0

CCSDS_OMM_VERS = 2.0
CREATION_DATE  = 
ORIGINATOR     = 

OBJECT_NAME    = SL-8 R/B
OBJECT_ID      = 1992-008B
CENTER_NAME    = EARTH
REF_FRAME      = TEME
TIME_SYSTEM    = UTC
MEAN_ELEMENT_THEORY = SGP/SGP4

EPOCH          = 2026-01-25T07:43:09.933600
MEAN_MOTION    = 13.75968211
ECCENTRICITY   = .0033329
INCLINATION    = 82.9286
RA_OF_ASC_NODE = 300.0363
ARG_OF_PERICENTER = 255.5841
MEAN_ANOMALY   = 224.4723

EPHEMERIS_TYPE = 0
CLASSIFICATION_TYPE = U
NORAD_CAT_ID   = 21876
ELEMENT_SET_NO = 999
REV_AT_EPOCH   = 70345
BSTAR          = .97707E-4
MEAN_MOTION_DOT = .11E-5
MEAN_MOTION_DDOT = 0

CCSDS_OMM_VERS = 2.0
CREATION_DATE  = 
ORIGINATOR     = 

OBJECT_NAME    = SL-8 R/B
OBJECT_ID      = 1992-020B
CENTER_NAME    = EARTH
REF_FRAME      = TEME
TIME_SYSTEM    = UTC
MEAN_ELEMENT_THEORY = SGP/SGP4

EPOCH          = 2026-01-25T13:25:44.567040
MEAN_MOTION    = 13.75541573
ECCENTRICITY   = .00300269
INCLINATION    = 82.9307
RA_OF_ASC_NODE = 185.7767
ARG_OF_PERICENTER = 59.6384
MEAN_ANOMALY   = 10.3321

EPHEMERIS_TYPE = 0
CLASSIFICATION_TYPE = U
NORAD_CAT_ID   = 21938
ELEMENT_SET_NO = 999
REV_AT_EPOCH   = 69520
BSTAR          = .18773771E-3
MEAN_MOTION_DOT = .197E-5
MEAN_MOTION_DDOT = 0

CCSDS_OMM_VERS = 2.0
CREATION_DATE  = 
ORIGINATOR     = 

OBJECT_NAME    = USA 81
OBJECT_ID      = 1992-023A
CENTER_NAME    = EARTH
REF_FRAME      = TEME
TIME_SYSTEM    = UTC
MEAN_ELEMENT_THEORY = SGP/SGP4

EPOCH          = 2026-01-25T09:59:55.875552
MEAN_MOTION    = 14.32349246
ECCENTRICITY   = .0002172
INCLINATION    = 85.0112
RA_OF_ASC_NODE = 156.3900
ARG_OF_PERICENTER = 113.9622
MEAN_ANOMALY   = 246.1798

EPHEMERIS_TYPE = 0
CLASSIFICATION_TYPE = U
NORAD_CAT_ID   = 21949
ELEMENT_SET_NO = 999
REV_AT_EPOCH   = 8859
BSTAR          = .1397185E-3
MEAN_MOTION_DOT = .397E-5
MEAN_MOTION_DDOT = 0

CCSDS_OMM_VERS = 2.0
CREATION_DATE  = 
ORIGINATOR     = 

OBJECT_NAME    = COSMOS 2219
OBJECT_ID      = 1992-076A
CENTER_NAME    = EARTH
REF_FRAME      = TEME
TIME_SYSTEM    = UTC
MEAN_ELEMENT_THEORY = SGP/SGP4

EPOCH          = 2026-01-25T12:17:13.402752
MEAN_MOTION    = 14.14080840
ECCENTRICITY   = .00208097
INCLINATION    = 71.0612
RA_OF_ASC_NODE = 108.3347
ARG_OF_PERICENTER = 267.0124
MEAN_ANOMALY   = 92.8617

EPHEMERIS_TYPE = 0
CLASSIFICATION_TYPE = U
NORAD_CAT_ID   = 22219
ELEMENT_SET_NO = 999
REV_AT_EPOCH   = 71227
BSTAR          = -.59275764E-4
MEAN_MOTION_DOT = -.16E-5
MEAN_MOTION_DDOT = 0

CCSDS_OMM_VERS = 2.0
CREATION_DATE  = 
ORIGINATOR     = 

OBJECT_NAME    = SL-16 R/B
OBJECT_ID      = 1992-076B
CENTER_NAME    = EARTH
REF_FRAME      = TEME
TIME_SYSTEM    = UTC
MEAN_ELEMENT_THEORY = SGP/SGP4

EPOCH          = 2026-01-25T14:54:52.682112
MEAN_MOTION    = 14.16850374
ECCENTRICITY   = .00123448
INCLINATION    = 70.9996
RA_OF_ASC_NODE = 279.0977
ARG_OF_PERICENTER = 171.1544
MEAN_ANOMALY   = 203.1795

EPHEMERIS_TYPE = 0
CLASSIFICATION_TYPE = U
NORAD_CAT_ID   = 22220
ELEMENT_SET_NO = 999
REV_AT_EPOCH   = 71573
BSTAR          = -.30997665E-4
MEAN_MOTION_DOT = -.11E-5
MEAN_MOTION_DDOT = 0

CCSDS_OMM_VERS = 2.0
CREATION_DATE  = 
ORIGINATOR     = 

OBJECT_NAME    = COSMOS 2221
OBJECT_ID      = 1992-080A
CENTER_NAME    = EARTH
REF_FRAME      = TEME
TIME_SYSTEM    = UTC
MEAN_ELEMENT_THEORY = SGP/SGP4

EPOCH          = 2026-01-25T05:32:45.684384
MEAN_MOTION    = 14.95998058
ECCENTRICITY   = .0014149
INCLINATION    = 82.5064
RA_OF_ASC_NODE = 320.6949
ARG_OF_PERICENTER = 345.9914
MEAN_ANOMALY   = 14.0913

EPHEMERIS_TYPE = 0
CLASSIFICATION_TYPE = U
NORAD_CAT_ID   = 22236
ELEMENT_SET_NO = 999
REV_AT_EPOCH   = 77429
BSTAR          = .37165E-3
MEAN_MOTION_DOT = .42E-4
MEAN_MOTION_DDOT = 0

CCSDS_OMM_VERS = 2.0
CREATION_DATE  = 
ORIGINATOR     = 

OBJECT_NAME    = SL-16 R/B
OBJECT_ID      = 1992-093B
CENTER_NAME    = EARTH
REF_FRAME      = TEME
TIME_SYSTEM    = UTC
MEAN_ELEMENT_THEORY = SGP/SGP4

EPOCH          = 2026-01-25T15:08:06.338688
MEAN_MOTION    = 14.15443503
ECCENTRICITY   = .0004512
INCLINATION    = 71.0221
RA_OF_ASC_NODE = 94.6621
ARG_OF_PERICENTER = 340.6074
MEAN_ANOMALY   = 19.4877

EPHEMERIS_TYPE = 0
CLASSIFICATION_TYPE = U
NORAD_CAT_ID   = 22285
ELEMENT_SET_NO = 999
REV_AT_EPOCH   = 70706
BSTAR          = .45991588E-4
MEAN_MOTION_DOT = .42E-6
MEAN_MOTION_DDOT = 0

CCSDS_OMM_VERS = 2.0
CREATION_DATE  = 
ORIGINATOR     = 

OBJECT_NAME    = COSMOS 2228
OBJECT_ID      = 1992-094A
CENTER_NAME    = EARTH
REF_FRAME      = TEME
TIME_SYSTEM    = UTC
MEAN_ELEMENT_THEORY = SGP/SGP4

EPOCH          = 2026-01-25T14:38:26.058048
MEAN_MOTION    = 14.96980487
ECCENTRICITY   = .00196599
INCLINATION    = 82.5175
RA_OF_ASC_NODE = 278.5581
ARG_OF_PERICENTER = 86.8024
MEAN_ANOMALY   = 273.5447

EPHEMERIS_TYPE = 0
CLASSIFICATION_TYPE = U
NORAD_CAT_ID   = 22286
ELEMENT_SET_NO = 999
REV_AT_EPOCH   = 76961
BSTAR          = .25668382E-3
MEAN_MOTION_DOT = .2988E-4
MEAN_MOTION_DDOT = 0

