SL-14 R/B               
1 21423U 91042B   26025.13551416  .00000696  00000+0  85020-4 0  9998
2 21423  82.4914 261.0338 0017806  28.7909 331.4284 14.81786892846627
ERS-1                   
1 21574U 91050A   26025.53056382  .00000626  00000+0  21493-3 0  9996
2 21574  98.7898  42.6804 0031449 332.0937  27.8562 14.39409393809521
ARIANE 40 R/B           
1 21610U 91050F   26025.61474964  .00000618  00000+0  19761-3 0  9992
2 21610  98.2101  79.4491 0002969 182.0986 178.0193 14.42858126812783
INTERCOSMOS 25          
1 21819U 91086A   26025.31145963  .00001861  00000+0  36712-3 0  9999
2 21819  82.6090 336.2221 1486190 210.4095 140.2020 12.11878650491436
SL-8 R/B                
1 21876U 92008B   26025.32164275  .00000110  00000+0  97707-4 0  9993
2 21876  82.9286 300.0363 0033329 255.5841 224.4723 13.75968211703452
SL-8 R/B                
1 21938U 92020B   26025.55954360  .00000197  00000+0  18774-3 0  9994
2 21938  82.9307 185.7767 0030026  59.6384  10.3321 13.75541573695204
USA 81                  
1 21949U 92023A   26025.41661893  .00000397  00000+0  13972-3 0  9997
2 21949  85.0112 156.3900 0002172 113.9622 246.1798 14.32349246 88599
COSMOS 2219             
1 22219U 92076A   26025.51196068 -.00000160  00000+0 -59276-4 0  9992
2 22219  71.0612 108.3347 0020809 267.0124  92.8617 14.14080840712274
SL-16 R/B               
1 22220U 92076B   26025.62144308 -.00000110  00000+0 -30998-4 0  9991
2 22220  70.9996 279.0977 0012344 171.1544 203.1795 14.16850374715737
COSMOS 2221             
1 22236U 92080A   26025.23108431  .00004200  00000+0  37165-3 0  9991
2 22236  82.5064 320.6949 0014149 345.9914  14.0913 14.95998058774294
SL-16 R/B               
1 22285U 92093B   26025.63062892  .00000042  00000+0  45992-4 0  9991
2 22285  71.0221  94.6621 0004512 340.6074  19.4877 14.15443503707064
COSMOS 2228             
1 22286U 92094A   26025.61002382  .00002988  00000+0  25668-3 0  9997
2 22286  82.5175 278.5581 0019659  86.8024 273.5447 14.96980487769611
